OBJECT_NAME,OBJECT_ID,EPOCH,MEAN_MOTION,ECCENTRICITY,INCLINATION,RA_OF_ASC_NODE,ARG_OF_PERICENTER,MEAN_ANOMALY,EPHEMERIS_TYPE,CLASSIFICATION_TYPE,NORAD_CAT_ID,ELEMENT_SET_NO,REV_AT_EPOCH,BSTAR,MEAN_MOTION_DOT,MEAN_MOTION_DDOT
ASNARO-2,2018-007A,2026-06-18T18:19:28.458912,15.22416031,.00019375,97.3972,176.6664,91.7547,268.3911,0,U,43152,999,46765,.32878772E-3,.7532E-4,0
JILIN-1 07,2018-008E,2026-06-18T23:36:38.080512,15.34747614,.00097544,97.1767,189.8644,60.0058,300.2153,0,U,43159,999,46527,.21646417E-3,.7224E-4,0
JILIN-1 08,2018-008F,2026-06-18T23:38:40.609536,15.33731120,.00079623,97.1800,189.1805,75.1870,285.0254,0,U,43160,999,46522,.16899914E-3,.544E-4,0
S-NET D,2018-014G,2026-06-18T23:30:12.509280,15.16686603,.00087676,97.5358,74.7587,24.8357,335.3296,0,U,43186,999,45903,.18947116E-3,.3645E-4,0
S-NET B,2018-014H,2026-06-18T19:01:44.037984,15.16656224,.00092894,97.5364,74.5602,20.2719,339.8881,0,U,43187,999,45900,.20370984E-3,.3922E-4,0
S-NET A,2018-014J,2026-06-18T17:08:33.839520,15.16692782,.00091737,97.5375,74.6911,21.1515,339.0095,0,U,43188,999,45899,.19133434E-3,.3683E-4,0
S-NET C,2018-014K,2026-06-18T17:32:19.247712,15.16647668,.00102662,97.5392,74.7825,12.7269,347.4221,0,U,43189,999,45754,.20706958E-3,.3987E-4,0
PAZ,2018-020A,2026-06-19T00:24:44.671680,15.19158360,.0001648,97.4453,177.3770,86.7853,273.3570,0,U,43215,999,46128,.70122741E-4,.1406E-4,0
GOES 17,2018-022A,2026-06-18T21:03:05.149152,1.00269551,.00004951,0.9424,85.6795,27.4319,20.2463,0,U,43226,999,3044,0,-.189E-5,0
LKW-4,2018-025A,2026-06-18T22:28:54.963264,15.62388571,.00019626,97.6349,340.9470,281.4026,78.7010,0,U,43236,999,46030,.36710274E-3,.32455E-3,0
ZHUHAI-1 OVS-02,2018-040B,2026-06-19T00:04:28.697952,15.25044708,.00019012,97.0386,187.1252,222.8585,137.2506,0,U,43440,999,45299,.23661002E-3,.5846E-4,0
ZHUHAI-1 OHS-02,2018-040C,2026-06-18T23:41:32.345952,15.25902447,.00082721,97.0368,194.0515,212.7505,147.3222,0,U,43441,999,11455,.23516132E-3,.5967E-4,0
GAOFEN-6,2018-048A,2026-06-18T06:58:53.520672,14.76618754,.0011887,97.9439,232.0243,162.1664,197.9965,0,U,43484,999,43355,.3422E-3,.2342E-4,0
LUOJIA-1 01,2018-048B,2026-06-18T23:46:39.995616,14.87291732,.00103917,97.8105,248.1494,111.8414,248.3908,0,U,43485,999,43448,.1785318E-3,.1557E-4,0
PAKTES 1A,2018-056A,2026-06-19T00:10:15.199104,14.99110597,.00220084,98.1304,326.5717,100.3588,260.0116,0,U,43529,999,43219,.10113125E-3,.1169E-4,0
PRSS-1,2018-056B,2026-06-18T22:41:17.063232,14.81990670,.00015876,97.7819,237.7663,77.3967,282.7423,0,U,43530,999,42869,.96781326E-4,.717E-5,0
HAIYANG-1C,2018-068A,2026-06-18T23:44:25.816416,14.34179034,.00121277,98.5190,242.2713,89.6310,270.6264,0,U,43609,999,40734,.131468E-5,-.4E-6,0
SSTL S1-4,2018-071A,2026-06-18T23:03:41.334912,14.96180180,.00012548,97.5022,41.5018,104.0910,256.0451,0,U,43618,999,42320,.11928064E-4,.8E-6,0
HAIYANG-2B,2018-081A,2026-06-18T23:26:07.409760,13.79307364,.00002802,99.3280,178.7060,3.6230,356.4924,0,U,43655,999,38517,.11473261E-3,.74E-6,0
CFOSAT,2018-083A,2026-06-18T22:35:44.373984,15.16383444,.00024041,97.3603,174.4206,90.1453,270.0056,0,U,43662,999,42270,.13425226E-3,.2542E-4,0
TEN-KOH,2018-084G,2026-06-18T18:54:53.720064,15.02948043,.00115026,98.0772,2.2195,109.5716,250.6751,0,U,43677,999,41640,.11590073E-3,.1492E-4,0
DIWATA-2B,2018-084H,2026-06-18T23:17:26.156832,15.00459955,.00126145,98.1180,6.2557,164.3723,195.7891,0,U,43678,999,41648,.17827744E-3,.2181E-4,0
STARS-AO,2018-084J,2026-06-18T09:25:33.077280,15.17063942,.0002977,98.0495,23.4379,134.4576,225.6899,0,U,43679,999,41765,.24333E-3,.4742E-4,0
AUTCUBE 2,2018-084K,2026-06-18T06:58:26.141376,15.10097353,.0009971,98.0707,15.5235,46.3231,313.8821,0,U,43681,999,41709,.15879E-3,.2518E-4,0
METOP-C,2018-087A,2026-06-18T21:33:17.506656,14.21512494,.00018197,98.6644,229.4705,127.3585,232.7758,0,U,43689,999,39507,.50233028E-4,.67E-6,0
ES'HAIL 2,2018-090A,2026-06-18T21:35:59.945568,1.00271632,.00017207,0.0144,35.4274,89.0129,132.4694,0,U,43700,999,2769,0,.138E-5,0
MOHAMMED VI-B,2018-095A,2026-06-18T22:30:53.991360,14.77117990,.00013459,97.9556,242.2395,97.9613,262.1750,0,U,43717,999,40844,.16979783E-4,.69E-6,0
HYSIS,2018-096A,2026-06-18T23:18:06.553152,14.78619081,.00017867,97.9838,236.7053,97.5746,262.5668,0,U,43719,999,40768,.44799242E-4,.276E-5,0
COSMOS 2530 (RODNIK-S 16),2018-097A,2026-06-18T23:40:49.496736,12.42881636,.00201157,82.5133,221.1641,35.8605,324.3820,0,U,43751,999,34251,.71366243E-3,.109E-5,0
