ASNARO-2                
1 43152U 18007A   26169.76352383  .00007532  00000+0  32879-3 0  9990
2 43152  97.3972 176.6664 0001937  91.7547 268.3911 15.22416031467656
JILIN-1 07              
1 43159U 18008E   26169.98377408  .00007224  00000+0  21646-3 0  9995
2 43159  97.1767 189.8644 0009754  60.0058 300.2153 15.34747614465275
JILIN-1 08              
1 43160U 18008F   26169.98519224  .00005440  00000+0  16900-3 0  9996
2 43160  97.1800 189.1805 0007962  75.1870 285.0254 15.33731120465226
S-NET D                 
1 43186U 18014G   26169.97931145  .00003645  00000+0  18947-3 0  9998
2 43186  97.5358  74.7587 0008767  24.8357 335.3296 15.16686603459030
S-NET B                 
1 43187U 18014H   26169.79287081  .00003922  00000+0  20371-3 0  9994
2 43187  97.5364  74.5602 0009289  20.2719 339.8881 15.16656224459008
S-NET A                 
1 43188U 18014J   26169.71428055  .00003683  00000+0  19133-3 0  9993
2 43188  97.5375  74.6911 0009173  21.1515 339.0095 15.16692782458996
S-NET C                 
1 43189U 18014K   26169.73077833  .00003987  00000+0  20707-3 0  9996
2 43189  97.5392  74.7825 0010266  12.7269 347.4221 15.16647668457545
PAZ                     
1 43215U 18020A   26170.01718370  .00001406  00000+0  70123-4 0  9996
2 43215  97.4453 177.3770 0001648  86.7853 273.3570 15.19158360461284
GOES 17                 
1 43226U 18022A   26169.87714293 -.00000189  00000+0  00000+0 0  9992
2 43226   0.9424  85.6795 0000495  27.4319  20.2463  1.00269551 30449
LKW-4                   
1 43236U 18025A   26169.93674726  .00032455  00000+0  36710-3 0  9990
2 43236  97.6349 340.9470 0001962 281.4026  78.7010 15.62388571460308
ZHUHAI-1 OVS-02         
1 43440U 18040B   26170.00310993  .00005846  00000+0  23661-3 0  9992
2 43440  97.0386 187.1252 0001901 222.8585 137.2506 15.25044708452998
ZHUHAI-1 OHS-02         
1 43441U 18040C   26169.98717993  .00005967  00000+0  23516-3 0  9992
2 43441  97.0368 194.0515 0008272 212.7505 147.3222 15.25902447114553
GAOFEN-6                
1 43484U 18048A   26169.29089723  .00002342  00000+0  34220-3 0  9992
2 43484  97.9439 232.0243 0011887 162.1664 197.9965 14.76618754433558
LUOJIA-1 01             
1 43485U 18048B   26169.99074069  .00001557  00000+0  17853-3 0  9997
2 43485  97.8105 248.1494 0010391 111.8414 248.3908 14.87291732434483
PAKTES 1A               
1 43529U 18056A   26170.00712036  .00001169  00000+0  10113-3 0  9993
2 43529  98.1304 326.5717 0022008 100.3588 260.0116 14.99110597432199
PRSS-1                  
1 43530U 18056B   26169.94533638  .00000717  00000+0  96781-4 0  9999
2 43530  97.7819 237.7663 0001587  77.3967 282.7423 14.81990670428694
HAIYANG-1C              
1 43609U 18068A   26169.98918769 -.00000040  00000+0  13147-5 0  9991
2 43609  98.5190 242.2713 0012127  89.6310 270.6264 14.34179034407348
SSTL S1-4               
1 43618U 18071A   26169.96089508  .00000080  00000+0  11928-4 0  9990
2 43618  97.5022  41.5018 0001254 104.0910 256.0451 14.96180180423207
HAIYANG-2B              
1 43655U 18081A   26169.97647465  .00000074  00000+0  11473-3 0  9992
2 43655  99.3280 178.7060 0000280   3.6230 356.4924 13.79307364385179
CFOSAT                  
1 43662U 18083A   26169.94148581  .00002542  00000+0  13425-3 0  9995
2 43662  97.3603 174.4206 0002404  90.1453 270.0056 15.16383444422701
TEN-KOH                 
1 43677U 18084G   26169.78812176  .00001492  00000+0  11590-3 0  9996
2 43677  98.0772   2.2195 0011502 109.5716 250.6751 15.02948043416406
DIWATA-2B               
1 43678U 18084H   26169.97044163  .00002181  00000+0  17828-3 0  9997
2 43678  98.1180   6.2557 0012614 164.3723 195.7891 15.00459955416488
STARS-AO                
1 43679U 18084J   26169.39274395  .00004742  00000+0  24333-3 0  9990
2 43679  98.0495  23.4379 0002977 134.4576 225.6899 15.17063942417651
AUTCUBE 2               
1 43681U 18084K   26169.29058034  .00002518  00000+0  15879-3 0  9996
2 43681  98.0707  15.5235 0009971  46.3231 313.8821 15.10097353417092
METOP-C                 
1 43689U 18087A   26169.89811929  .00000067  00000+0  50233-4 0  9994
2 43689  98.6644 229.4705 0001819 127.3585 232.7758 14.21512494395079
ES'HAIL 2               
1 43700U 18090A   26169.89999937  .00000138  00000+0  00000+0 0  9999
2 43700   0.0144  35.4274 0001720  89.0129 132.4694  1.00271632 27694
MOHAMMED VI-B           
1 43717U 18095A   26169.93812490  .00000069  00000+0  16980-4 0  9997
2 43717  97.9556 242.2395 0001345  97.9613 262.1750 14.77117990408449
HYSIS                   
1 43719U 18096A   26169.97090918  .00000276  00000+0  44799-4 0  9996
2 43719  97.9838 236.7053 0001786  97.5746 262.5668 14.78619081407681
COSMOS 2530 (RODNIK-S *)
1 43751U 18097A   26169.98668399  .00000109  00000+0  71366-3 0  9992
2 43751  82.5133 221.1641 0020115  35.8605 324.3820 12.42881636342515
